{
  "type": "FeatureCollection",
  "features": [
    {
      "type": "Feature",
      "properties": {
        "norad_id": 43581,
        "name": "BEIDOU-3 M5 (C23)",
        "group": "gnss",
        "lat": 30.93246979181841,
        "lon": -145.38664760239314,
        "alt_km": 21520.539877681334,
        "timestamp": "2025-12-06T09:34:17.157377+00:00",
        "meta_object_name": "BEIDOU-3 M5 (C23)",
        "meta_object_id": "2018-062A",
        "meta_epoch": "2025-12-04T04:36:50.793120",
        "meta_mean_motion": 1.86228551,
        "meta_eccentricity": 0.0002115,
        "meta_inclination": 54.0891,
        "meta_ra_of_asc_node": 188.9344,
        "meta_arg_of_pericenter": 351.3867,
        "meta_mean_anomaly": 8.7024,
        "meta_ephemeris_type": 0,
        "meta_classification_type": "U",
        "meta_norad_cat_id": 43581,
        "meta_element_set_no": 999,
        "meta_rev_at_epoch": 5000,
        "meta_bstar": 0,
        "meta_mean_motion_dot": 1.07e-06,
        "meta_mean_motion_ddot": 0,
        "tle_line1": "1 43581U 18062A   25338.19225455  .00000107  00000+0  00000+0 0  9998",
        "tle_line2": "2 43581  54.0891 188.9344 0002115 351.3867   8.7024  1.86228551 50003"
      },
      "geometry": {
        "type": "Point",
        "coordinates": [
          -145.38664760239314,
          30.93246979181841
        ]
      }
    },
    {
      "type": "Feature",
      "properties": {
        "norad_id": 43582,
        "name": "BEIDOU-3 M6 (C24)",
        "group": "gnss",
        "lat": 37.42301167936331,
        "lon": -24.830365707086532,
        "alt_km": 21521.808763186156,
        "timestamp": "2025-12-06T09:34:17.157388+00:00",
        "meta_object_name": "BEIDOU-3 M6 (C24)",
        "meta_object_id": "2018-062B",
        "meta_epoch": "2025-12-04T14:12:56.874816",
        "meta_mean_motion": 1.862296,
        "meta_eccentricity": 0.00077069,
        "meta_inclination": 54.0887,
        "meta_ra_of_asc_node": 188.9098,
        "meta_arg_of_pericenter": 46.0149,
        "meta_mean_anomaly": 314.1395,
        "meta_ephemeris_type": 0,
        "meta_classification_type": "U",
        "meta_norad_cat_id": 43582,
        "meta_element_set_no": 999,
        "meta_rev_at_epoch": 5001,
        "meta_bstar": 0,
        "meta_mean_motion_dot": 1.02e-06,
        "meta_mean_motion_ddot": 0,
        "tle_line1": "1 43582U 18062B   25338.59232494  .00000102  00000+0  00000+0 0  9999",
        "tle_line2": "2 43582  54.0887 188.9098 0007706  46.0149 314.1395  1.86229600 50019"
      },
      "geometry": {
        "type": "Point",
        "coordinates": [
          -24.830365707086532,
          37.42301167936331
        ]
      }
    },
    {
      "type": "Feature",
      "properties": {
        "norad_id": 43602,
        "name": "BEIDOU-3 M12 (C26)",
        "group": "gnss",
        "lat": 5.593549275243036,
        "lon": 3.5296745242748,
        "alt_km": 21545.105498354173,
        "timestamp": "2025-12-06T09:34:17.157399+00:00",
        "meta_object_name": "BEIDOU-3 M12 (C26)",
        "meta_object_id": "2018-067A",
        "meta_epoch": "2025-12-05T01:36:30.437280",
        "meta_mean_motion": 1.86227634,
        "meta_eccentricity": 0.0009145,
        "meta_inclination": 54.1831,
        "meta_ra_of_asc_node": 187.6237,
        "meta_arg_of_pericenter": 40.6372,
        "meta_mean_anomaly": 319.5174,
        "meta_ephemeris_type": 0,
        "meta_classification_type": "U",
        "meta_norad_cat_id": 43602,
        "meta_element_set_no": 999,
        "meta_rev_at_epoch": 4950,
        "meta_bstar": 0,
        "meta_mean_motion_dot": 9.5e-07,
        "meta_mean_motion_ddot": 0,
        "tle_line1": "1 43602U 18067A   25339.06701895  .00000095  00000+0  00000+0 0  9997",
        "tle_line2": "2 43602  54.1831 187.6237 0009145  40.6372 319.5174  1.86227634 49501"
      },
      "geometry": {
        "type": "Point",
        "coordinates": [
          3.5296745242748,
          5.593549275243036
        ]
      }
    },
    {
      "type": "Feature",
      "properties": {
        "norad_id": 43603,
        "name": "BEIDOU-3 M11 (C25)",
        "group": "gnss",
        "lat": 53.53900125514457,
        "lon": -94.56497615410115,
        "alt_km": 21511.429360800936,
        "timestamp": "2025-12-06T09:34:17.157410+00:00",
        "meta_object_name": "BEIDOU-3 M11 (C25)",
        "meta_object_id": "2018-067B",
        "meta_epoch": "2025-12-04T03:03:44.195904",
        "meta_mean_motion": 1.86227126,
        "meta_eccentricity": 0.0005572,
        "meta_inclination": 54.1804,
        "meta_ra_of_asc_node": 187.6197,
        "meta_arg_of_pericenter": 36.31,
        "meta_mean_anomaly": 323.8191,
        "meta_ephemeris_type": 0,
        "meta_classification_type": "U",
        "meta_norad_cat_id": 43603,
        "meta_element_set_no": 999,
        "meta_rev_at_epoch": 4951,
        "meta_bstar": 0,
        "meta_mean_motion_dot": 1.09e-06,
        "meta_mean_motion_ddot": 0,
        "tle_line1": "1 43603U 18067B   25338.12759486  .00000109  00000+0  00000+0 0  9999",
        "tle_line2": "2 43603  54.1804 187.6197 0005572  36.3100 323.8191  1.86227126 49512"
      },
      "geometry": {
        "type": "Point",
        "coordinates": [
          -94.56497615410115,
          53.53900125514457
        ]
      }
    },
    {
      "type": "Feature",
      "properties": {
        "norad_id": 43622,
        "name": "BEIDOU-3 M13 (C32)",
        "group": "gnss",
        "lat": 50.68987523863414,
        "lon": -164.9635540255936,
        "alt_km": 21537.831600282818,
        "timestamp": "2025-12-06T09:34:17.157421+00:00",
        "meta_object_name": "BEIDOU-3 M13 (C32)",
        "meta_object_id": "2018-072A",
        "meta_epoch": "2025-12-03T13:07:53.541408",
        "meta_mean_motion": 1.86230692,
        "meta_eccentricity": 0.00056735,
        "meta_inclination": 56.4512,
        "meta_ra_of_asc_node": 69.1249,
        "meta_arg_of_pericenter": 298.6305,
        "meta_mean_anomaly": 61.3164,
        "meta_ephemeris_type": 0,
        "meta_classification_type": "U",
        "meta_norad_cat_id": 43622,
        "meta_element_set_no": 999,
        "meta_rev_at_epoch": 4901,
        "meta_bstar": 0,
        "meta_mean_motion_dot": -5e-07,
        "meta_mean_motion_ddot": 0,
        "tle_line1": "1 43622U 18072A   25337.54714747 -.00000050  00000+0  00000+0 0  9998",
        "tle_line2": "2 43622  56.4512  69.1249 0005673 298.6305  61.3164  1.86230692 49019"
      },
      "geometry": {
        "type": "Point",
        "coordinates": [
          -164.9635540255936,
          50.68987523863414
        ]
      }
    },
    {
      "type": "Feature",
      "properties": {
        "norad_id": 43623,
        "name": "BEIDOU-3 M14 (C33)",
        "group": "gnss",
        "lat": -18.26510441154436,
        "lon": -98.33978947467419,
        "alt_km": 21536.56592888821,
        "timestamp": "2025-12-06T09:34:17.157431+00:00",
        "meta_object_name": "BEIDOU-3 M14 (C33)",
        "meta_object_id": "2018-072B",
        "meta_epoch": "2025-12-02T08:07:43.843296",
        "meta_mean_motion": 1.86230716,
        "meta_eccentricity": 0.00030503,
        "meta_inclination": 56.4518,
        "meta_ra_of_asc_node": 69.1588,
        "meta_arg_of_pericenter": 335.8375,
        "meta_mean_anomaly": 24.1509,
        "meta_ephemeris_type": 0,
        "meta_classification_type": "U",
        "meta_norad_cat_id": 43623,
        "meta_element_set_no": 999,
        "meta_rev_at_epoch": 4898,
        "meta_bstar": 0,
        "meta_mean_motion_dot": -4.6e-07,
        "meta_mean_motion_ddot": 0,
        "tle_line1": "1 43623U 18072B   25336.33870189 -.00000046  00000+0  00000+0 0  9993",
        "tle_line2": "2 43623  56.4518  69.1588 0003050 335.8375  24.1509  1.86230716 48982"
      },
      "geometry": {
        "type": "Point",
        "coordinates": [
          -98.33978947467419,
          -18.26510441154436
        ]
      }
    },
    {
      "type": "Feature",
      "properties": {
        "norad_id": 43647,
        "name": "BEIDOU-3 M16 (C35)",
        "group": "gnss",
        "lat": 53.784484693314305,
        "lon": 47.48415586404882,
        "alt_km": 21517.50731761326,
        "timestamp": "2025-12-06T09:34:17.157444+00:00",
        "meta_object_name": "BEIDOU-3 M16 (C35)",
        "meta_object_id": "2018-078A",
        "meta_epoch": "2025-12-04T15:28:02.326368",
        "meta_mean_motion": 1.8623209,
        "meta_eccentricity": 0.00070171,
        "meta_inclination": 54.2696,
        "meta_ra_of_asc_node": 306.8042,
        "meta_arg_of_pericenter": 18.5633,
        "meta_mean_anomaly": 341.4446,
        "meta_ephemeris_type": 0,
        "meta_classification_type": "U",
        "meta_norad_cat_id": 43647,
        "meta_element_set_no": 999,
        "meta_rev_at_epoch": 4853,
        "meta_bstar": 0,
        "meta_mean_motion_dot": -6.9e-07,
        "meta_mean_motion_ddot": 0,
        "tle_line1": "1 43647U 18078A   25338.64447137 -.00000069  00000+0  00000+0 0  9999",
        "tle_line2": "2 43647  54.2696 306.8042 0007017  18.5633 341.4446  1.86232090 48539"
      },
      "geometry": {
        "type": "Point",
        "coordinates": [
          47.48415586404882,
          53.784484693314305
        ]
      }
    }
  ]
}